{
  "type": "FeatureCollection",
  "features": [
    {
      "type": "Feature",
      "properties": {
        "norad_id": 30872,
        "name": "FENGYUN 1C DEB",
        "group": "fengyun-1c-debris",
        "lat": -5.4373954129133,
        "lon": 31.331013450758295,
        "alt_km": 748.5113621349001,
        "timestamp": "2025-12-04T15:47:54.377476+00:00",
        "meta_object_name": "FENGYUN 1C DEB",
        "meta_object_id": "1999-025AXJ",
        "meta_epoch": "2025-12-01T02:52:00.052320",
        "meta_mean_motion": 14.39326682,
        "meta_eccentricity": 0.0041385,
        "meta_inclination": 99.1951,
        "meta_ra_of_asc_node": 26.6549,
        "meta_arg_of_pericenter": 62.9558,
        "meta_mean_anomaly": 325.6114,
        "meta_ephemeris_type": 0,
        "meta_classification_type": "U",
        "meta_norad_cat_id": 30872,
        "meta_element_set_no": 999,
        "meta_rev_at_epoch": 97569,
        "meta_bstar": 0.0009159011,
        "meta_mean_motion_dot": 2.825e-05,
        "meta_mean_motion_ddot": 0,
        "tle_line1": "1 30872U 99025AXJ 25335.11944505  .00002825  00000+0  91590-3 0  9995",
        "tle_line2": "2 30872  99.1951  26.6549 0041385  62.9558 325.6114 14.39326682975696"
      },
      "geometry": {
        "type": "Point",
        "coordinates": [
          31.331013450758295,
          -5.4373954129133
        ]
      }
    },
    {
      "type": "Feature",
      "properties": {
        "norad_id": 30873,
        "name": "FENGYUN 1C DEB",
        "group": "fengyun-1c-debris",
        "lat": 29.955147301261505,
        "lon": 164.20253950607534,
        "alt_km": 901.0647558721903,
        "timestamp": "2025-12-04T15:47:54.377486+00:00",
        "meta_object_name": "FENGYUN 1C DEB",
        "meta_object_id": "1999-025AXK",
        "meta_epoch": "2025-12-02T19:05:40.608960",
        "meta_mean_motion": 14.19120964,
        "meta_eccentricity": 0.01080899,
        "meta_inclination": 98.6116,
        "meta_ra_of_asc_node": 337.3821,
        "meta_arg_of_pericenter": 317.6858,
        "meta_mean_anomaly": 41.6016,
        "meta_ephemeris_type": 0,
        "meta_classification_type": "U",
        "meta_norad_cat_id": 30873,
        "meta_element_set_no": 999,
        "meta_rev_at_epoch": 97051,
        "meta_bstar": 0.00029970349,
        "meta_mean_motion_dot": 6.21e-06,
        "meta_mean_motion_ddot": 0,
        "tle_line1": "1 30873U 99025AXK 25336.79560890  .00000621  00000+0  29970-3 0  9997",
        "tle_line2": "2 30873  98.6116 337.3821 0108089 317.6858  41.6016 14.19120964970512"
      },
      "geometry": {
        "type": "Point",
        "coordinates": [
          164.20253950607534,
          29.955147301261505
        ]
      }
    },
    {
      "type": "Feature",
      "properties": {
        "norad_id": 30874,
        "name": "FENGYUN 1C DEB",
        "group": "fengyun-1c-debris",
        "lat": 50.48442114245656,
        "lon": -0.8339393231207362,
        "alt_km": 792.0736561206659,
        "timestamp": "2025-12-04T15:47:54.377496+00:00",
        "meta_object_name": "FENGYUN 1C DEB",
        "meta_object_id": "1999-025AXL",
        "meta_epoch": "2025-12-03T00:47:49.890048",
        "meta_mean_motion": 14.19619901,
        "meta_eccentricity": 0.00424445,
        "meta_inclination": 98.4915,
        "meta_ra_of_asc_node": 8.0432,
        "meta_arg_of_pericenter": 68.3697,
        "meta_mean_anomaly": 322.7179,
        "meta_ephemeris_type": 0,
        "meta_classification_type": "U",
        "meta_norad_cat_id": 30874,
        "meta_element_set_no": 999,
        "meta_rev_at_epoch": 96883,
        "meta_bstar": 0.00057497792,
        "meta_mean_motion_dot": 1.184e-05,
        "meta_mean_motion_ddot": 0,
        "tle_line1": "1 30874U 99025AXL 25337.03321632  .00001184  00000+0  57498-3 0  9996",
        "tle_line2": "2 30874  98.4915   8.0432 0042444  68.3697 322.7179 14.19619901968830"
      },
      "geometry": {
        "type": "Point",
        "coordinates": [
          -0.8339393231207362,
          50.48442114245656
        ]
      }
    },
    {
      "type": "Feature",
      "properties": {
        "norad_id": 30876,
        "name": "FENGYUN 1C DEB",
        "group": "fengyun-1c-debris",
        "lat": -9.436567930551334,
        "lon": -34.47604873549114,
        "alt_km": 869.636868648965,
        "timestamp": "2025-12-04T15:47:54.377506+00:00",
        "meta_object_name": "FENGYUN 1C DEB",
        "meta_object_id": "1999-025AXN",
        "meta_epoch": "2025-12-03T11:24:01.710720",
        "meta_mean_motion": 13.99152911,
        "meta_eccentricity": 0.00669585,
        "meta_inclination": 98.809,
        "meta_ra_of_asc_node": 322.9094,
        "meta_arg_of_pericenter": 303.2465,
        "meta_mean_anomaly": 210.0458,
        "meta_ephemeris_type": 0,
        "meta_classification_type": "U",
        "meta_norad_cat_id": 30876,
        "meta_element_set_no": 999,
        "meta_rev_at_epoch": 95580,
        "meta_bstar": 0.0003687677,
        "meta_mean_motion_dot": 5.02e-06,
        "meta_mean_motion_ddot": 0,
        "tle_line1": "1 30876U 99025AXN 25337.47501980  .00000502  00000+0  36877-3 0  9993",
        "tle_line2": "2 30876  98.8090 322.9094 0066958 303.2465 210.0458 13.99152911955804"
      },
      "geometry": {
        "type": "Point",
        "coordinates": [
          -34.47604873549114,
          -9.436567930551334
        ]
      }
    },
    {
      "type": "Feature",
      "properties": {
        "norad_id": 30878,
        "name": "FENGYUN 1C DEB",
        "group": "fengyun-1c-debris",
        "lat": 78.35653596507612,
        "lon": -151.4877183071285,
        "alt_km": 867.9519214626034,
        "timestamp": "2025-12-04T15:47:54.377517+00:00",
        "meta_object_name": "FENGYUN 1C DEB",
        "meta_object_id": "1999-025AXQ",
        "meta_epoch": "2025-12-02T11:20:36.401856",
        "meta_mean_motion": 14.11849941,
        "meta_eccentricity": 0.00403428,
        "meta_inclination": 98.7214,
        "meta_ra_of_asc_node": 338.2344,
        "meta_arg_of_pericenter": 324.0393,
        "meta_mean_anomaly": 190.7849,
        "meta_ephemeris_type": 0,
        "meta_classification_type": "U",
        "meta_norad_cat_id": 30878,
        "meta_element_set_no": 999,
        "meta_rev_at_epoch": 96222,
        "meta_bstar": 0.00075829348,
        "meta_mean_motion_dot": 1.352e-05,
        "meta_mean_motion_ddot": 0,
        "tle_line1": "1 30878U 99025AXQ 25336.47264354  .00001352  00000+0  75829-3 0  9999",
        "tle_line2": "2 30878  98.7214 338.2344 0040342 324.0393 190.7849 14.11849941962224"
      },
      "geometry": {
        "type": "Point",
        "coordinates": [
          -151.4877183071285,
          78.35653596507612
        ]
      }
    },
    {
      "type": "Feature",
      "properties": {
        "norad_id": 30879,
        "name": "FENGYUN 1C DEB",
        "group": "fengyun-1c-debris",
        "lat": -77.35735077783497,
        "lon": -118.5421934072443,
        "alt_km": 548.6934783754295,
        "timestamp": "2025-12-04T15:47:54.377527+00:00",
        "meta_object_name": "FENGYUN 1C DEB",
        "meta_object_id": "1999-025AXR",
        "meta_epoch": "2025-12-03T20:30:25.744032",
        "meta_mean_motion": 14.66510234,
        "meta_eccentricity": 0.0205334,
        "meta_inclination": 99.3525,
        "meta_ra_of_asc_node": 193.2571,
        "meta_arg_of_pericenter": 307.0591,
        "meta_mean_anomaly": 51.1985,
        "meta_ephemeris_type": 0,
        "meta_classification_type": "U",
        "meta_norad_cat_id": 30879,
        "meta_element_set_no": 999,
        "meta_rev_at_epoch": 61809,
        "meta_bstar": 0.0077897,
        "meta_mean_motion_dot": 0.00059575,
        "meta_mean_motion_ddot": 0,
        "tle_line1": "1 30879U 99025AXR 25337.85446463  .00059575  00000+0  77897-2 0  9992",
        "tle_line2": "2 30879  99.3525 193.2571 0205334 307.0591  51.1985 14.66510234618097"
      },
      "geometry": {
        "type": "Point",
        "coordinates": [
          -118.5421934072443,
          -77.35735077783497
        ]
      }
    },
    {
      "type": "Feature",
      "properties": {
        "norad_id": 30880,
        "name": "FENGYUN 1C DEB",
        "group": "fengyun-1c-debris",
        "lat": -32.02924473203402,
        "lon": -135.08102539678998,
        "alt_km": 810.6364437564625,
        "timestamp": "2025-12-04T15:47:54.377537+00:00",
        "meta_object_name": "FENGYUN 1C DEB",
        "meta_object_id": "1999-025AXS",
        "meta_epoch": "2025-12-03T20:16:38.447616",
        "meta_mean_motion": 14.25509537,
        "meta_eccentricity": 0.0022727,
        "meta_inclination": 98.7966,
        "meta_ra_of_asc_node": 49.6622,
        "meta_arg_of_pericenter": 132.0925,
        "meta_mean_anomaly": 228.2192,
        "meta_ephemeris_type": 0,
        "meta_classification_type": "U",
        "meta_norad_cat_id": 30880,
        "meta_element_set_no": 999,
        "meta_rev_at_epoch": 96587,
        "meta_bstar": 0.0027123,
        "meta_mean_motion_dot": 6.389e-05,
        "meta_mean_motion_ddot": 0,
        "tle_line1": "1 30880U 99025AXS 25337.84488944  .00006389  00000+0  27123-2 0  9995",
        "tle_line2": "2 30880  98.7966  49.6622 0022727 132.0925 228.2192 14.25509537965879"
      },
      "geometry": {
        "type": "Point",
        "coordinates": [
          -135.08102539678998,
          -32.02924473203402
        ]
      }
    }
  ]
}